STARLINK-30600          
1 58100U 23161D   26068.57561683 -.00000026  00000+0  11243-4 0  9993
2 58100  53.1609 166.0889 0001272 107.9519 252.1621 15.30187522134407
TEVEL2-8                
1 63239U 25052AF  26068.66815442  .00019130  00000+0  69304-3 0  9993
2 63239  97.4055 324.2923 0008031 124.9191 235.2804 15.28392908 54807
